[{"OBJECT_NAME":"STARLINK-34370","OBJECT_ID":"2025-123U","EPOCH":"2026-03-09T17:30:42.469344","MEAN_MOTION":14.98334393,"ECCENTRICITY":0.00037331,"INCLINATION":70.0016,"RA_OF_ASC_NODE":194.3836,"ARG_OF_PERICENTER":273.6723,"MEAN_ANOMALY":86.4009,"EPHEMERIS_TYPE":0,"CLASSIFICATION_TYPE":"U","NORAD_CAT_ID":64309,"ELEMENT_SET_NO":999,"REV_AT_EPOCH":4162,"BSTAR":0.0006408962,"MEAN_MOTION_DOT":7.563e-5,"MEAN_MOTION_DDOT":0},{"OBJECT_NAME":"FENGYUN 1C DEB","OBJECT_ID":"1999-025CJB","EPOCH":"2026-03-04T10:30:16.287264","MEAN_MOTION":14.84272597,"ECCENTRICITY":0.00915644,"INCLINATION":98.0869,"RA_OF_ASC_NODE":145.0566,"ARG_OF_PERICENTER":112.3308,"MEAN_ANOMALY":248.7643,"EPHEMERIS_TYPE":0,"CLASSIFICATION_TYPE":"U","NORAD_CAT_ID":31837,"ELEMENT_SET_NO":999,"REV_AT_EPOCH":99570,"BSTAR":0.0020173845,"MEAN_MOTION_DOT":0.00018196,"MEAN_MOTION_DDOT":0}]
